IRIDIUM 106             
1 41917U 17003A   25300.41747854  .00000168  00000+0  52948-4 0  9999
2 41917  86.4031 185.7869 0001700  73.9344 286.2039 14.34218505459841
IRIDIUM 103             
1 41918U 17003B   25300.68386308  .00000224  00000+0  73014-4 0  9992
2 41918  86.4034 185.5763 0002385  74.9007 285.2453 14.34215417459908
IRIDIUM 109             
1 41919U 17003C   25300.69020685  .00000109  00000+0  32028-4 0  9999
2 41919  86.4033 185.6292 0002220  80.8641 279.2806 14.34215387459871
IRIDIUM 102             
1 41920U 17003D   25300.44919277  .00000182  00000+0  58057-4 0  9999
2 41920  86.4031 185.6585 0002113  86.9910 273.1528 14.34218526459921
IRIDIUM 105             
1 41921U 17003E   25300.55947168  .00000362  00000+0  12208-3 0  9999
2 41921  86.3993 154.1214 0002181  81.6894 278.4549 14.34219547461799
IRIDIUM 104             
1 41922U 17003F   25300.39211027  .00000223  00000+0  72529-4 0  9999
2 41922  86.4031 185.7211 0002460  83.9683 276.1793 14.34218266459905
IRIDIUM 114             
1 41923U 17003G   25300.67752803  .00000365  00000+0  12338-3 0  9991
2 41923  86.4030 185.5861 0002230  80.4502 279.6946 14.34218201459920
IRIDIUM 108             
1 41924U 17003H   25300.35697258  .00000152  00000+0  47054-4 0  9997
2 41924  86.3988 154.0989 0001928  89.9848 270.1569 14.34218353461731
